{
  "type": "FeatureCollection",
  "features": [
    {
      "type": "Feature",
      "properties": {
        "norad_id": 34833,
        "name": "IRIDIUM 33 DEB",
        "group": "iridium-33-debris",
        "lat": 74.39425190084695,
        "lon": -148.3084235111474,
        "alt_km": 701.2000032971573,
        "timestamp": "2025-12-27T05:29:39.589129+00:00",
        "meta_object_name": "IRIDIUM 33 DEB",
        "meta_object_id": "1997-051MH",
        "meta_epoch": "2025-12-26T21:34:16.309632",
        "meta_mean_motion": 14.52457985,
        "meta_eccentricity": 0.00211027,
        "meta_inclination": 86.3918,
        "meta_ra_of_asc_node": 44.8903,
        "meta_arg_of_pericenter": 55.1593,
        "meta_mean_anomaly": 124.7221,
        "meta_ephemeris_type": 0,
        "meta_classification_type": "U",
        "meta_norad_cat_id": 34833,
        "meta_element_set_no": 999,
        "meta_rev_at_epoch": 87920,
        "meta_bstar": 0.00081239582,
        "meta_mean_motion_dot": 3.342e-05,
        "meta_mean_motion_ddot": 0,
        "tle_line1": "1 34833U 97051MH  25360.89879988  .00003342  00000+0  81240-3 0  9994",
        "tle_line2": "2 34833  86.3918  44.8903 0021102  55.1593 124.7221 14.52457985879205"
      },
      "geometry": {
        "type": "Point",
        "coordinates": [
          -148.3084235111474,
          74.39425190084695
        ]
      }
    },
    {
      "type": "Feature",
      "properties": {
        "norad_id": 34870,
        "name": "IRIDIUM 33 DEB",
        "group": "iridium-33-debris",
        "lat": -74.55794157836793,
        "lon": 140.95468446699994,
        "alt_km": 654.0627084450916,
        "timestamp": "2025-12-27T05:29:39.589140+00:00",
        "meta_object_name": "IRIDIUM 33 DEB",
        "meta_object_id": "1997-051MQ",
        "meta_epoch": "2025-12-26T04:14:20.156352",
        "meta_mean_motion": 14.7668735,
        "meta_eccentricity": 0.00182715,
        "meta_inclination": 86.3108,
        "meta_ra_of_asc_node": 307.9292,
        "meta_arg_of_pericenter": 135.8969,
        "meta_mean_anomaly": 288.3699,
        "meta_ephemeris_type": 0,
        "meta_classification_type": "U",
        "meta_norad_cat_id": 34870,
        "meta_element_set_no": 999,
        "meta_rev_at_epoch": 89109,
        "meta_bstar": 0.001456659,
        "meta_mean_motion_dot": 0.00010246,
        "meta_mean_motion_ddot": 0,
        "tle_line1": "1 34870U 97051MQ  25360.17662218  .00010246  00000+0  14567-2 0  9990",
        "tle_line2": "2 34870  86.3108 307.9292 0018271 135.8969 288.3699 14.76687350891091"
      },
      "geometry": {
        "type": "Point",
        "coordinates": [
          140.95468446699994,
          -74.55794157836793
        ]
      }
    },
    {
      "type": "Feature",
      "properties": {
        "norad_id": 34896,
        "name": "IRIDIUM 33 DEB",
        "group": "iridium-33-debris",
        "lat": -75.78624398831742,
        "lon": -54.492394383753876,
        "alt_km": 689.171690029787,
        "timestamp": "2025-12-27T05:29:39.589151+00:00",
        "meta_object_name": "IRIDIUM 33 DEB",
        "meta_object_id": "1997-051MY",
        "meta_epoch": "2025-12-24T04:12:44.288640",
        "meta_mean_motion": 14.66381715,
        "meta_eccentricity": 0.00257287,
        "meta_inclination": 86.3299,
        "meta_ra_of_asc_node": 321.5555,
        "meta_arg_of_pericenter": 173.6101,
        "meta_mean_anomaly": 201.3064,
        "meta_ephemeris_type": 0,
        "meta_classification_type": "U",
        "meta_norad_cat_id": 34896,
        "meta_element_set_no": 999,
        "meta_rev_at_epoch": 87787,
        "meta_bstar": 0.00093038371,
        "meta_mean_motion_dot": 5.188e-05,
        "meta_mean_motion_ddot": 0,
        "tle_line1": "1 34896U 97051MY  25358.17551260  .00005188  00000+0  93038-3 0  9999",
        "tle_line2": "2 34896  86.3299 321.5555 0025728 173.6101 201.3064 14.66381715877873"
      },
      "geometry": {
        "type": "Point",
        "coordinates": [
          -54.492394383753876,
          -75.78624398831742
        ]
      }
    },
    {
      "type": "Feature",
      "properties": {
        "norad_id": 34926,
        "name": "IRIDIUM 33 DEB",
        "group": "iridium-33-debris",
        "lat": 54.79484218804227,
        "lon": 176.04410690877265,
        "alt_km": 727.9487080686104,
        "timestamp": "2025-12-27T05:29:39.589161+00:00",
        "meta_object_name": "IRIDIUM 33 DEB",
        "meta_object_id": "1997-051NF",
        "meta_epoch": "2025-12-27T00:05:49.475040",
        "meta_mean_motion": 14.55078165,
        "meta_eccentricity": 0.00742029,
        "meta_inclination": 86.1304,
        "meta_ra_of_asc_node": 1.6534,
        "meta_arg_of_pericenter": 243.2233,
        "meta_mean_anomaly": 145.2258,
        "meta_ephemeris_type": 0,
        "meta_classification_type": "U",
        "meta_norad_cat_id": 34926,
        "meta_element_set_no": 999,
        "meta_rev_at_epoch": 86664,
        "meta_bstar": 0.0066537297,
        "meta_mean_motion_dot": 0.00029892,
        "meta_mean_motion_ddot": 0,
        "tle_line1": "1 34926U 97051NF  25361.00404485  .00029892  00000+0  66537-2 0  9996",
        "tle_line2": "2 34926  86.1304   1.6534 0074202 243.2233 145.2258 14.55078165866640"
      },
      "geometry": {
        "type": "Point",
        "coordinates": [
          176.04410690877265,
          54.79484218804227
        ]
      }
    },
    {
      "type": "Feature",
      "properties": {
        "norad_id": 34985,
        "name": "IRIDIUM 33 DEB",
        "group": "iridium-33-debris",
        "lat": -50.62070514447743,
        "lon": 46.25971396593998,
        "alt_km": 770.3460514239887,
        "timestamp": "2025-12-27T05:29:39.589172+00:00",
        "meta_object_name": "IRIDIUM 33 DEB",
        "meta_object_id": "1997-051NR",
        "meta_epoch": "2025-12-26T21:58:10.172064",
        "meta_mean_motion": 14.42068347,
        "meta_eccentricity": 0.00222208,
        "meta_inclination": 86.3683,
        "meta_ra_of_asc_node": 50.8313,
        "meta_arg_of_pericenter": 172.8188,
        "meta_mean_anomaly": 309.665,
        "meta_ephemeris_type": 0,
        "meta_classification_type": "U",
        "meta_norad_cat_id": 34985,
        "meta_element_set_no": 999,
        "meta_rev_at_epoch": 87379,
        "meta_bstar": 0.00068644654,
        "meta_mean_motion_dot": 2.28e-05,
        "meta_mean_motion_ddot": 0,
        "tle_line1": "1 34985U 97051NR  25360.91539551  .00002280  00000+0  68645-3 0  9998",
        "tle_line2": "2 34985  86.3683  50.8313 0022220 172.8188 309.6650 14.42068347873790"
      },
      "geometry": {
        "type": "Point",
        "coordinates": [
          46.25971396593998,
          -50.62070514447743
        ]
      }
    },
    {
      "type": "Feature",
      "properties": {
        "norad_id": 35051,
        "name": "IRIDIUM 33 DEB",
        "group": "iridium-33-debris",
        "lat": 6.743005793440008,
        "lon": -177.88836179340902,
        "alt_km": 739.6182493739552,
        "timestamp": "2025-12-27T05:29:39.589183+00:00",
        "meta_object_name": "IRIDIUM 33 DEB",
        "meta_object_id": "1997-051NX",
        "meta_epoch": "2025-12-22T18:31:37.744896",
        "meta_mean_motion": 14.47639956,
        "meta_eccentricity": 0.0010302,
        "meta_inclination": 86.324,
        "meta_ra_of_asc_node": 4.4893,
        "meta_arg_of_pericenter": 63.2582,
        "meta_mean_anomaly": 296.9674,
        "meta_ephemeris_type": 0,
        "meta_classification_type": "U",
        "meta_norad_cat_id": 35051,
        "meta_element_set_no": 999,
        "meta_rev_at_epoch": 87141,
        "meta_bstar": 0.00060447572,
        "meta_mean_motion_dot": 2.248e-05,
        "meta_mean_motion_ddot": 0,
        "tle_line1": "1 35051U 97051NX  25356.77196464  .00002248  00000+0  60448-3 0  9991",
        "tle_line2": "2 35051  86.3240   4.4893 0010302  63.2582 296.9674 14.47639956871417"
      },
      "geometry": {
        "type": "Point",
        "coordinates": [
          -177.88836179340902,
          6.743005793440008
        ]
      }
    },
    {
      "type": "Feature",
      "properties": {
        "norad_id": 35052,
        "name": "IRIDIUM 33 DEB",
        "group": "iridium-33-debris",
        "lat": -26.83104614374095,
        "lon": -163.87623277778252,
        "alt_km": 778.1233988621443,
        "timestamp": "2025-12-27T05:29:39.589193+00:00",
        "meta_object_name": "IRIDIUM 33 DEB",
        "meta_object_id": "1997-051NY",
        "meta_epoch": "2025-12-26T00:09:21.492000",
        "meta_mean_motion": 14.38507246,
        "meta_eccentricity": 0.00130035,
        "meta_inclination": 86.3301,
        "meta_ra_of_asc_node": 14.7874,
        "meta_arg_of_pericenter": 47.6773,
        "meta_mean_anomaly": 312.5525,
        "meta_ephemeris_type": 0,
        "meta_classification_type": "U",
        "meta_norad_cat_id": 35052,
        "meta_element_set_no": 999,
        "meta_rev_at_epoch": 87466,
        "meta_bstar": 0.00018800221,
        "meta_mean_motion_dot": 5.94e-06,
        "meta_mean_motion_ddot": 0,
        "tle_line1": "1 35052U 97051NY  25360.00649875  .00000594  00000+0  18800-3 0  9999",
        "tle_line2": "2 35052  86.3301  14.7874 0013003  47.6773 312.5525 14.38507246874664"
      },
      "geometry": {
        "type": "Point",
        "coordinates": [
          -163.87623277778252,
          -26.83104614374095
        ]
      }
    }
  ]
}